H1 CPF 01  gfz 2021 09 23 12  7662 terrasarx 
H2 0702601  6201 31698    2021 09 23 12 59 42 2021 09 28 00 00 42   120 1 1  0 0 0
H9
10 0 59481  76302.000000  0   -4645547.004   5087492.015    -35348.953
10 0 59481  76422.000000  0   -4470395.204   5159092.477   -937682.580
10 0 59481  76542.000000  0   -4216736.885   5136835.833  -1823522.955
10 0 59481  76662.000000  0   -3890710.499   5019861.073  -2677313.039
10 0 59481  76782.000000  0   -3499719.159   4809090.403  -3484090.761
10 0 59481  76902.000000  0   -3052261.002   4507223.634  -4229754.149
10 0 59481  77022.000000  0   -2557741.987   4118697.838  -4901305.516
10 0 59481  77142.000000  0   -2026276.210   3649614.968  -5487071.423
10 0 59481  77262.000000  0   -1468478.414   3107639.422  -5976897.804
10 0 59481  77382.000000  0    -895251.714   2501865.706  -6362316.566
10 0 59481  77502.000000  0    -317575.740   1842660.672  -6636680.188
10 0 59481  77622.000000  0     253700.034   1141484.770  -6795265.068
10 0 59481  77742.000000  0     808054.786    410694.500  -6835344.617
10 0 59481  77862.000000  0    1335486.151   -336671.369  -6756231.843
10 0 59481  77982.000000  0    1826686.365  -1087119.849  -6559288.363
10 0 59481  78102.000000  0    2273202.279  -1826940.739  -6247903.139
10 0 59481  78222.000000  0    2667579.040  -2542450.722  -5827440.682
10 0 59481  78342.000000  0    3003484.727  -3220242.333  -5305159.946
10 0 59481  78462.000000  0    3275815.163  -3847436.084  -4690099.900
10 0 59481  78582.000000  0    3480773.603  -4411926.217  -3992931.916
10 0 59481  78702.000000  0    3615925.682  -4902617.029  -3225785.375
10 0 59481  78822.000000  0    3680230.003  -5309647.803  -2402045.558
10 0 59481  78942.000000  0    3674040.335  -5624599.630  -1536123.388
10 0 59481  79062.000000  0    3599079.651  -5840676.363   -643203.167
10 0 59481  79182.000000  0    3458386.012  -5952857.091    261028.029
10 0 59481  79302.000000  0    3256230.122  -5958013.779   1160662.559
10 0 59481  79422.000000  0    2998008.790  -5854992.626   2039860.634
10 0 59481  79542.000000  0    2690114.384  -5644653.625   2883139.446
10 0 59481  79662.000000  0    2339784.279  -5329869.329   3675652.917
10 0 59481  79782.000000  0    1954935.740  -4915484.230   4403458.026
10 0 59481  79902.000000  0    1543989.665  -4408234.749   5053763.501
10 0 59481  80022.000000  0    1115688.379  -3816632.254   5615155.005
10 0 59481  80142.000000  0     678909.684  -3150811.257   6077794.127
10 0 59481  80262.000000  0     242482.841  -2422347.304   6433584.487
10 0 59481  80382.000000  0    -184988.676  -1644050.424   6676306.301
10 0 59481  80502.000000  0    -595295.080   -829737.556   6801719.265
10 0 59481  80622.000000  0    -980776.679      6014.296   6807633.243
10 0 59481  80742.000000  0   -1334466.067    848129.486   6693944.004
10 0 59481  80862.000000  0   -1650213.594   1681305.071   6462634.573
10 0 59481  80982.000000  0   -1922794.488   2490287.970   6117742.946
10 0 59481  81102.000000  0   -2147996.046   3260154.416   5665295.881
10 0 59481  81222.000000  0   -2322683.133   3976586.806   5113209.415
10 0 59481  81342.000000  0   -2444842.092   4626144.379   4471157.512
10 0 59481  81462.000000  0   -2513601.204   5196522.314   3750407.692
10 0 59481  81582.000000  0   -2529227.174   5676793.218   2963626.003
10 0 59481  81702.000000  0   -2493097.122   6057624.610   2124654.174
10 0 59481  81822.000000  0   -2407647.224   6331468.154   1248263.760
10 0 59481  81942.000000  0   -2276298.377   6492715.705    349890.856
10 0 59481  82062.000000  0   -2103361.028   6537817.920   -554643.044
10 0 59481  82182.000000  0   -1893921.839   6465362.712  -1449418.850
10 0 59481  82302.000000  0   -1653713.717   6276109.068  -2318712.044
10 0 59481  82422.000000  0   -1388972.769   5972972.681  -3147276.354
10 0 59481  82542.000000  0   -1106288.140   5560971.581  -3920612.944
10 0 59481  82662.000000  0    -812448.222   5047132.157  -4625224.384
10 0 59481  82782.000000  0    -514286.360   4440357.111  -5248846.218
10 0 59481  82902.000000  0    -218529.461   3751261.047  -5780653.882
10 0 59481  83022.000000  0      68347.398   2991975.371  -6211442.167
10 0 59481  83142.000000  0     340256.548   2175927.432  -6533773.175
10 0 59481  83262.000000  0     591620.873   1317601.111  -6742092.911
10 0 59481  83382.000000  0     817483.498    432281.178  -6832817.998
10 0 59481  83502.000000  0    1013601.752   -464214.882  -6804390.429
10 0 59481  83622.000000  0    1176524.077  -1355813.993  -6657300.480
10 0 59481  83742.000000  0    1303649.026  -2226467.669  -6394077.745
10 0 59481  83862.000000  0    1393266.477  -3060433.015  -6019253.432
10 0 59481  83982.000000  0    1444580.071  -3842553.844  -5539292.506
10 0 59481  84102.000000  0    1457709.357  -4558536.688  -4962492.017
10 0 59481  84222.000000  0    1433673.388  -5195213.498  -4298848.062
10 0 59481  84342.000000  0    1374354.619  -5740790.282  -3559894.231
10 0 59481  84462.000000  0    1282442.895  -6185075.425  -2758509.360
10 0 59481  84582.000000  0    1161362.012  -6519681.314  -1908698.512
10 0 59481  84702.000000  0    1015179.756  -6738195.125  -1025349.823
10 0 59481  84822.000000  0     848502.168  -6836312.979   -123971.122
10 0 59481  84942.000000  0     666355.600  -6811933.037    779587.761
10 0 59481  85062.000000  0     474059.464  -6665205.813   1669421.028
10 0 59481  85182.000000  0     277092.632  -6398539.591   2529856.403
10 0 59481  85302.000000  0      80956.981  -6016558.746   3345741.353
10 0 59481  85422.000000  0    -108958.990  -5526015.786   4102716.709
10 0 59481  85542.000000  0    -287512.360  -4935663.682   4787472.381
10 0 59481  85662.000000  0    -449930.272  -4256089.954   5387982.968
10 0 59481  85782.000000  0    -591923.642  -3499517.097   5893717.588
10 0 59481  85902.000000  0    -709788.189  -2679572.583   6295821.325
10 0 59481  86022.000000  0    -800490.378  -1811035.693   6587262.592
10 0 59481  86142.000000  0    -861736.887   -909568.456   6762949.270
10 0 59481  86262.000000  0    -892026.902      8568.323   6819813.688
10 0 59481  86382.000000  0    -890686.077    926809.001   6756863.091
10 0 59482    102.000000  0    -857880.407   1828581.608   6575195.845
10 0 59482    222.000000  0    -794610.597   2697606.324   6277983.334
10 0 59482    342.000000  0    -702687.489   3518189.435   5870418.254
10 0 59482    462.000000  0    -584688.890   4275509.053   5359628.981
10 0 59482    582.000000  0    -443898.004   4955886.576   4754560.869
10 0 59482    702.000000  0    -284225.068   5547041.782   4065825.779
10 0 59482    822.000000  0    -110112.653   6038321.875   3305518.431
10 0 59482    942.000000  0      73571.219   6420903.457   2487009.609
10 0 59482   1062.000000  0     261652.180   6687965.549   1624707.478
10 0 59482   1182.000000  0     448778.364   6834817.346    733797.675
10 0 59482   1302.000000  0     629554.215   6858985.902   -170030.490
10 0 59482   1422.000000  0     798676.538   6760259.608  -1070869.088
10 0 59482   1542.000000  0     951067.824   6540685.072  -1952880.373
10 0 59482   1662.000000  0    1082003.964   6204519.670  -2800582.352
10 0 59482   1782.000000  0    1187234.128   5758140.622  -3599125.843
10 0 59482   1902.000000  0    1263089.859   5209913.073  -4334557.046
10 0 59482   2022.000000  0    1306580.526   4570020.931  -4994060.218
10 0 59482   2142.000000  0    1315472.995   3850265.556  -5566175.283
10 0 59482   2262.000000  0    1288353.655   3063838.991  -6040988.528
10 0 59482   2382.000000  0    1224672.092   2225074.872  -6410294.206
10 0 59482   2502.000000  0    1124765.533   1349184.270  -6667723.824
10 0 59482   2622.000000  0     989864.434    451981.665  -6808846.066
10 0 59482   2742.000000  0     822078.856   -450396.963  -6831235.159
10 0 59482   2862.000000  0     624365.686  -1341778.760  -6734507.047
10 0 59482   2982.000000  0     400477.576  -2206235.863  -6520323.706
10 0 59482   3102.000000  0     154894.693  -3028361.897  -6192369.091
10 0 59482   3222.000000  0    -107261.563  -3793543.483  -5756293.979
10 0 59482   3342.000000  0    -380329.938  -4488218.541  -5219627.353
10 0 59482   3462.000000  0    -658224.785  -5100118.879  -4591658.126
10 0 59482   3582.000000  0    -934564.688  -5618493.458  -3883285.745
10 0 59482   3702.000000  0   -1202811.440  -6034306.917  -3106840.397
10 0 59482   3822.000000  0   -1456416.251  -6340408.440  -2275875.333
10 0 59482   3942.000000  0   -1688970.401  -6531667.655  -1404934.018
10 0 59482   4062.000000  0   -1894356.353  -6605072.906   -509294.565
10 0 59482   4182.000000  0   -2066895.620  -6559787.939    395302.967
10 0 59482   4302.000000  0   -2201489.886  -6397164.968   1292940.405
10 0 59482   4422.000000  0   -2293751.344  -6120713.520   2167810.369
10 0 59482   4542.000000  0   -2340118.599  -5736025.433   3004503.896
10 0 59482   4662.000000  0   -2337954.722  -5250657.758   3788289.775
10 0 59482   4782.000000  0   -2285625.309  -4673977.399   4505379.084
10 0 59482   4902.000000  0   -2182555.195  -4016972.505   5143170.047
10 0 59482   5022.000000  0   -2029263.006  -3292034.426   5690470.084
10 0 59482   5142.000000  0   -1827371.385  -2512714.578   6137689.058
10 0 59482   5262.000000  0   -1579593.160  -1693465.140   6477001.514
10 0 59482   5382.000000  0   -1289695.128   -849367.294   6702478.212
10 0 59482   5502.000000  0    -962440.540      4149.671   6810183.204
10 0 59482   5622.000000  0    -603511.175    851589.789   6798237.339
10 0 59482   5742.000000  0    -219408.663   1677671.066   6666849.899
10 0 59482   5862.000000  0     182663.289   2467600.845   6418315.206
10 0 59482   5982.000000  0     594933.462   3207340.517   6056974.619
10 0 59482   6102.000000  0    1009211.792   3883856.193   5589145.673
10 0 59482   6222.000000  0    1417050.372   4485352.111   5023017.365
10 0 59482   6342.000000  0    1809914.231   5001482.356   4368512.855
99
